NORAD_CAT_ID,OBJECT_NAME,OBJECT_TYPE,EPOCH,MEAN_MOTION,ECCENTRICITY,INCLINATION,RA_OF_ASC_NODE,ARG_OF_PERICENTER,MEAN_ANOMALY,BSTAR,MEAN_MOTION_DOT,MEAN_MOTION_DDOT,TLE_LINE0,TLE_LINE1,TLE_LINE2,SEMIMAJOR_AXIS,PERIOD,APOGEE,PERIGEE,DECAYED
49754.0,STARLINK-3193,PAYLOAD,2023-03-10 03:14:39,15.08881776,9.71e-05,53.2186,17.3592,99.6131,260.4971,0.0027148,0.00043233,0.0,0 STARLINK-3193,1 49754U 21115AG  23069.13518476  .00043233  00000-0  27148-2 0  9993,2 49754  53.2186  17.3592 0000971  99.6131 260.4971 15.08881776 71399,6917.753,95.435,540.289,538.946,0.0
49754.0,STARLINK-3193,PAYLOAD,2023-03-10 06:25:25,15.08898239,9.3e-05,53.2187,16.7648,74.6669,285.4426,0.003103,0.00049522,0.0,0 STARLINK-3193,1 49754U 21115AG  23069.26766079  .00049522  00000-0  31030-2 0  9993,2 49754  53.2187  16.7648 0000930  74.6669 285.4426 15.08898239 70303,6917.702,95.434,540.211,538.924,0.0
49754.0,STARLINK-3193,PAYLOAD,2023-03-11 03:05:28,15.08831972,8.44e-05,53.2193,12.8984,100.583,259.5258,0.0021051,0.00033366,0.0,0 STARLINK-3193,1 49754U 21115AG  23070.12880020  .00033366  00000-0  21051-2 0  9994,2 49754  53.2193  12.8984 0000844 100.5830 259.5258 15.08831972 71546,6917.905,95.438,540.354,539.186,0.0
49754.0,STARLINK-3193,PAYLOAD,2023-03-11 20:34:43,15.08826586,0.0001082,53.2191,9.6279,94.423,265.6886,0.0028752,0.00045751,0.0,0 STARLINK-3193,1 49754U 21115AG  23070.85745146  .00045751  00000-0  28752-2 0  9999,2 49754  53.2191   9.6279 0001082  94.4230 265.6886 15.08826586 70544,6917.921,95.438,540.535,539.038,0.0
49754.0,STARLINK-3193,PAYLOAD,2023-03-12 06:07:02,15.08863048,8.72e-05,53.2184,7.8447,96.1873,263.9218,0.0017539,0.00027753,0.0,0 STARLINK-3193,1 49754U 21115AG  23071.25488493  .00027753  00000-0  17539-2 0  9996,2 49754  53.2184   7.8447 0000872  96.1873 263.9218 15.08863048 71715,6917.81,95.436,540.278,539.072,0.0
49754.0,STARLINK-3193,PAYLOAD,2023-03-13 04:22:26,15.08847896,8.93e-05,53.2174,3.6839,95.862,264.2474,0.0011607,0.00018237,0.0,0 STARLINK-3193,1 49754U 21115AG  23072.18225000  .00018237  00000-0  11607-2 0  9999,2 49754  53.2174   3.6839 0000893  95.8620 264.2474 15.08847896 71858,6917.856,95.437,540.339,539.103,0.0
49754.0,STARLINK-3193,PAYLOAD,2023-03-14 02:37:50,15.08852292,0.0001227,53.2178,359.5185,97.3623,262.7508,0.00066474,0.00010311,0.0,0 STARLINK-3193,1 49754U 21115AG  23073.10960827  .00010311  00000-0  66474-3 0  9993,2 49754  53.2178 359.5185 0001227  97.3623 262.7508 15.08852292 71993,6917.843,95.437,540.557,538.859,0.0
49754.0,STARLINK-3193,PAYLOAD,2023-03-14 12:10:09,15.08851101,0.0001544,53.2172,357.7362,61.9095,298.2053,0.00040926,6.233e-05,0.0,0 STARLINK-3193,1 49754U 21115AG  23073.50704875  .00006233  00000-0  40926-3 0  9998,2 49754  53.2172 357.7362 0001544  61.9095 298.2053 15.08851101 70947,6917.846,95.437,540.78,538.643,0.0
49754.0,STARLINK-3193,PAYLOAD,2023-03-15 04:03:59,15.08873622,0.0001141,53.2178,354.761,82.0158,278.0963,0.00075135,0.00011701,0.0,0 STARLINK-3193,1 49754U 21115AG  23074.16943522  .00011701  00000-0  75135-3 0  9991,2 49754  53.2178 354.7610 0001141  82.0158 278.0963 15.08873622 72156,6917.778,95.435,540.432,538.853,0.0
49754.0,STARLINK-3193,PAYLOAD,2023-03-16 03:54:46,15.0886121,0.0001422,53.2179,350.2986,94.754,265.3614,0.00038319,5.819e-05,0.0,0 STARLINK-3193,1 49754U 21115AG  23075.16303490  .00005819  00000-0  38319-3 0  9992,2 49754  53.2179 350.2986 0001422  94.7540 265.3614 15.08861210 72300,6917.816,95.436,540.664,538.697,0.0
49754.0,STARLINK-3193,PAYLOAD,2023-03-16 21:24:01,15.0882997,9.44e-05,53.2179,347.0309,88.4971,271.613,-8.3769e-05,-1.62e-05,0.0,0 STARLINK-3193,1 49754U 21115AG  23075.89168483 -.00001620  00000-0 -83769-4 0  9991,2 49754  53.2179 347.0309 0000944  88.4971 271.6130 15.08829970 71308,6917.911,95.438,540.429,539.123,0.0
49754.0,STARLINK-3193,PAYLOAD,2023-03-16 22:59:24,15.08830968,9.97e-05,53.2181,346.7335,77.925,282.1854,-9.4797e-07,-3.03e-06,0.0,0 STARLINK-3193,1 49754U 21115AG  23075.95792570 -.00000303  00000-0 -94797-6 0  9990,2 49754  53.2181 346.7335 0000997  77.9250 282.1854 15.08830968 72420,6917.908,95.438,540.463,539.083,0.0
49754.0,STARLINK-3193,PAYLOAD,2023-03-17 05:20:57,15.08836759,0.0001329,53.2177,345.5426,105.7349,254.379,0.00052326,8.049e-05,0.0,0 STARLINK-3193,1 49754U 21115AG  23076.22288380  .00008049  00000-0  52326-3 0  9992,2 49754  53.2177 345.5426 0001329 105.7349 254.3790 15.08836759 72460,6917.89,95.438,540.675,538.836,0.0
49754.0,STARLINK-3193,PAYLOAD,2023-03-17 21:14:49,15.08829043,0.0001514,53.2188,342.5693,104.1996,255.9165,0.00010381,1.364e-05,0.0,0 STARLINK-3193,1 49754U 21115AG  23076.88529223  .00001364  00000-0  10381-3 0  9996,2 49754  53.2188 342.5693 0001514 104.1996 255.9165 15.08829043 71451,6917.914,95.438,540.826,538.732,0.0
49754.0,STARLINK-3193,PAYLOAD,2023-03-18 09:57:53,15.08839434,0.0001136,53.2172,340.1892,96.8729,263.2392,0.0001513,2.121e-05,0.0,0 STARLINK-3193,1 49754U 21115AG  23077.41520345  .00002121  00000-0  15130-3 0  9991,2 49754  53.2172 340.1892 0001136  96.8729 263.2392 15.08839434 72641,6917.882,95.438,540.533,538.961,0.0
49754.0,STARLINK-3193,PAYLOAD,2023-03-18 22:40:59,15.08838805,0.0001109,53.2173,337.8106,101.9388,258.1728,0.00031341,4.703e-05,0.0,0 STARLINK-3193,1 49754U 21115AG  23077.94512895  .00004703  00000-0  31341-3 0  9990,2 49754  53.2173 337.8106 0001109 101.9388 258.1728 15.08838805 71615,6917.884,95.438,540.516,538.982,0.0
49754.0,STARLINK-3193,PAYLOAD,2023-03-19 09:48:40,15.08847427,7.91e-05,53.2179,335.7311,82.7626,277.3456,0.00039334,5.979e-05,0.0,0 STARLINK-3193,1 49754U 21115AG  23078.40880606  .00005979  00000-0  39334-3 0  9996,2 49754  53.2179 335.7311 0000791  82.7626 277.3456 15.08847427 71681,6917.858,95.437,540.27,539.175,0.0
49754.0,STARLINK-3193,PAYLOAD,2023-03-19 20:56:23,15.08840282,9.91e-05,53.2177,333.6504,87.5461,272.5645,-3.1881e-05,-7.95e-06,0.0,0 STARLINK-3193,1 49754U 21115AG  23078.87248995 -.00000795  00000-0 -31881-4 0  9999,2 49754  53.2177 333.6504 0000991  87.5461 272.5645 15.08840282 72862,6917.88,95.438,540.43,539.059,0.0
49754.0,STARLINK-3193,PAYLOAD,2023-03-20 09:39:28,15.08834718,0.0001459,53.2169,331.2685,78.6586,281.457,-0.00010443,-1.949e-05,0.0,0 STARLINK-3193,1 49754U 21115AG  23079.40241091 -.00001949  00000-0 -10443-3 0  9991,2 49754  53.2169 331.2685 0001459  78.6586 281.4570 15.08834718 71835,6917.897,95.438,540.771,538.752,0.0
49754.0,STARLINK-3193,PAYLOAD,2023-03-20 22:22:33,15.08843388,9.87e-05,53.2165,328.889,72.2474,287.8626,2.0605e-05,4e-07,0.0,0 STARLINK-3193,1 49754U 21115AG  23079.93232693  .00000040  00000-0  20605-4 0  9998,2 49754  53.2165 328.8890 0000987  72.2474 287.8626 15.08843388 73020,6917.87,95.437,540.418,539.052,0.0
49754.0,STARLINK-3193,PAYLOAD,2023-03-21 03:08:42,15.0885506,0.0001135,53.217,327.9984,78.6996,281.4123,0.00068666,0.00010662,0.0,0 STARLINK-3193,1 49754U 21115AG  23080.13104566  .00010662  00000-0  68666-3 0  9998,2 49754  53.2170 327.9984 0001135  78.6996 281.4123 15.08855060 71946,6917.834,95.437,540.485,538.914,0.0
49754.0,STARLINK-3193,PAYLOAD,2023-03-21 22:13:20,15.08847068,0.000123,53.2156,324.4269,102.6256,257.4873,0.00032752,4.929e-05,0.0,0 STARLINK-3193,1 49754U 21115AG  23080.92592657  .00004929  00000-0  32752-3 0  9993,2 49754  53.2156 324.4269 0001230 102.6256 257.4873 15.08847068 72069,6917.859,95.437,540.575,538.873,0.0
49754.0,STARLINK-3193,PAYLOAD,2023-03-22 02:59:29,15.08856493,0.0001139,53.2164,323.5388,76.1764,283.9355,0.00064354,9.973e-05,0.0,0 STARLINK-3193,1 49754U 21115AG  23081.12464522  .00009973  00000-0  64354-3 0  9992,2 49754  53.2164 323.5388 0001139  76.1764 283.9355 15.08856493 73205,6917.83,95.437,540.483,538.907,0.0
49754.0,STARLINK-3193,PAYLOAD,2023-03-22 20:28:44,15.08834897,0.0001111,53.2156,320.2655,89.8954,270.2166,0.00049228,7.554e-05,0.0,0 STARLINK-3193,1 49754U 21115AG  23081.85329340  .00007554  00000-0  49228-3 0  9996,2 49754  53.2156 320.2655 0001111  89.8954 270.2166 15.08834897 73314,6917.896,95.438,540.53,538.992,0.0
49754.0,STARLINK-3193,PAYLOAD,2023-03-22 22:04:07,15.08830908,9.97e-05,53.2159,319.9681,99.5142,260.5963,0.00046195,7.07e-05,0.0,0 STARLINK-3193,1 49754U 21115AG  23081.91953340  .00007070  00000-0  46195-3 0  9999,2 49754  53.2159 319.9681 0000997  99.5142 260.5963 15.08830908 72213,6917.908,95.438,540.463,539.083,0.0
49754.0,STARLINK-3193,PAYLOAD,2023-03-23 21:54:54,15.08846618,8.99e-05,53.2154,315.5082,103.1649,256.9443,0.00061521,9.519e-05,0.0,0 STARLINK-3193,1 49754U 21115AG  23082.91313534  .00009519  00000-0  61521-3 0  9995,2 49754  53.2154 315.5082 0000899 103.1649 256.9443 15.08846618 72363,6917.86,95.437,540.347,539.103,0.0
49754.0,STARLINK-3193,PAYLOAD,2023-03-23 23:30:17,15.08863025,0.0001149,53.2166,315.2122,86.1892,273.9231,0.0011566,0.00018179,0.0,0 STARLINK-3193,1 49754U 21115AG  23082.97937435  .00018179  00000-0  11566-2 0  9998,2 49754  53.2166 315.2122 0001149  86.1892 273.9231 15.08863025 73486,6917.81,95.436,540.47,538.88,0.0
49754.0,STARLINK-3193,PAYLOAD,2023-03-24 21:45:40,15.08879566,0.0001127,53.2163,311.0514,89.9827,270.1294,0.00077892,0.00012144,0.0,0 STARLINK-3193,1 49754U 21115AG  23083.90671361  .00012144  00000-0  77892-3 0  9996,2 49754  53.2163 311.0514 0001127  89.9827 270.1294 15.08879566 73628,6917.759,95.435,540.404,538.845,0.0
49754.0,STARLINK-3193,PAYLOAD,2023-03-25 21:36:28,15.08830631,0.000117,53.2158,306.5894,105.1989,254.9133,-0.00047927,-7.905e-05,0.0,0 STARLINK-3193,1 49754U 21115AG  23084.90032417 -.00007905  00000-0 -47927-3 0  9997,2 49754  53.2158 306.5894 0001170 105.1989 254.9133 15.08830631 73778,6917.909,95.438,540.583,538.965,0.0
49754.0,STARLINK-3193,PAYLOAD,2023-03-26 21:27:15,15.08833221,0.0001255,53.2161,302.1307,107.982,252.1309,-0.0002364,-4.047e-05,0.0,0 STARLINK-3193,1 49754U 21115AG  23085.89393353 -.00004047  00000-0 -23640-3 0  9995,2 49754  53.2161 302.1307 0001255 107.9820 252.1309 15.08833221 72818,6917.901,95.438,540.634,538.898,0.0
